LEMUR-2-ANDIS           
1 42838U 17042P   26068.55941107  .00023598  00000+0  79875-3 0  9998
2 42838  97.3659 249.7950 0009101   4.3248 355.8070 15.30557934473198
STARLINK-35874          
1 66962U 25288D   26068.24006589  .00023725  00000+0  86914-3 0  9999
2 66962  43.0023  26.4182 0001840 276.9906  83.0737 15.27570001 15213
